{
  "type": "FeatureCollection",
  "features": [
    {
      "type": "Feature",
      "properties": {
        "norad_id": 44333,
        "name": "AT&T T-16",
        "group": "intelsat",
        "lat": -0.02917531262004041,
        "lon": -81.17853529246854,
        "alt_km": 35788.99809234813,
        "timestamp": "2025-12-25T19:00:39.016101+00:00",
        "meta_object_name": "AT&T T-16",
        "meta_object_id": "2019-034A",
        "meta_epoch": "2025-12-23T22:55:25.672800",
        "meta_mean_motion": 1.00268558,
        "meta_eccentricity": 6.686e-05,
        "meta_inclination": 0.0228,
        "meta_ra_of_asc_node": 67.9518,
        "meta_arg_of_pericenter": 76.4171,
        "meta_mean_anomaly": 191.3588,
        "meta_ephemeris_type": 0,
        "meta_classification_type": "U",
        "meta_norad_cat_id": 44333,
        "meta_element_set_no": 999,
        "meta_rev_at_epoch": 2387,
        "meta_bstar": 0,
        "meta_mean_motion_dot": -9.4e-07,
        "meta_mean_motion_ddot": 0,
        "tle_line1": "1 44333U 19034A   25357.95515825 -.00000094  00000+0  00000+0 0  9998",
        "tle_line2": "2 44333   0.0228  67.9518 0000668  76.4171 191.3588  1.00268558 23873"
      },
      "geometry": {
        "type": "Point",
        "coordinates": [
          -81.17853529246854,
          -0.02917531262004041
        ]
      }
    },
    {
      "type": "Feature",
      "properties": {
        "norad_id": 44476,
        "name": "INTELSAT 39 (IS-39)",
        "group": "intelsat",
        "lat": 0.0384814973361425,
        "lon": 81.64254541841599,
        "alt_km": 35783.5159912498,
        "timestamp": "2025-12-25T19:00:39.016113+00:00",
        "meta_object_name": "INTELSAT 39 (IS-39)",
        "meta_object_id": "2019-049B",
        "meta_epoch": "2025-12-24T23:39:55.357632",
        "meta_mean_motion": 1.0027611,
        "meta_eccentricity": 6.204e-05,
        "meta_inclination": 0.0209,
        "meta_ra_of_asc_node": 14.9454,
        "meta_arg_of_pericenter": 127.1893,
        "meta_mean_anomaly": 8.5314,
        "meta_ephemeris_type": 0,
        "meta_classification_type": "U",
        "meta_norad_cat_id": 44476,
        "meta_element_set_no": 999,
        "meta_rev_at_epoch": 2338,
        "meta_bstar": 0,
        "meta_mean_motion_dot": 0,
        "meta_mean_motion_ddot": 0,
        "tle_line1": "1 44476U 19049B   25358.98605738  .00000000  00000+0  00000+0 0  9995",
        "tle_line2": "2 44476   0.0209  14.9454 0000620 127.1893   8.5314  1.00276110 23389"
      },
      "geometry": {
        "type": "Point",
        "coordinates": [
          81.64254541841599,
          0.0384814973361425
        ]
      }
    },
    {
      "type": "Feature",
      "properties": {
        "norad_id": 46114,
        "name": "GALAXY 30 (G-30)",
        "group": "intelsat",
        "lat": -0.03396882726371417,
        "lon": -105.30921595013494,
        "alt_km": 35777.54587443327,
        "timestamp": "2025-12-25T19:00:39.016124+00:00",
        "meta_object_name": "GALAXY 30 (G-30)",
        "meta_object_id": "2020-056C",
        "meta_epoch": "2025-12-25T06:10:38.820000",
        "meta_mean_motion": 1.00271167,
        "meta_eccentricity": 0.00021608,
        "meta_inclination": 0.0179,
        "meta_ra_of_asc_node": 337.5906,
        "meta_arg_of_pericenter": 295.4491,
        "meta_mean_anomaly": 148.6389,
        "meta_ephemeris_type": 0,
        "meta_classification_type": "U",
        "meta_norad_cat_id": 46114,
        "meta_element_set_no": 999,
        "meta_rev_at_epoch": 1954,
        "meta_bstar": 0,
        "meta_mean_motion_dot": 5.8e-07,
        "meta_mean_motion_ddot": 0,
        "tle_line1": "1 46114U 20056C   25359.25739375  .00000058  00000+0  00000+0 0  9995",
        "tle_line2": "2 46114   0.0179 337.5906 0002160 295.4491 148.6389  1.00271167 19544"
      },
      "geometry": {
        "type": "Point",
        "coordinates": [
          -105.30921595013494,
          -0.03396882726371417
        ]
      }
    },
    {
      "type": "Feature",
      "properties": {
        "norad_id": 54026,
        "name": "GALAXY 33 (G-33)",
        "group": "intelsat",
        "lat": -0.02114981777745996,
        "lon": -113.29322462182364,
        "alt_km": 35779.25905559455,
        "timestamp": "2025-12-25T19:00:39.016136+00:00",
        "meta_object_name": "GALAXY 33 (G-33)",
        "meta_object_id": "2022-128A",
        "meta_epoch": "2025-12-24T04:31:51.326400",
        "meta_mean_motion": 1.00272122,
        "meta_eccentricity": 0.0001643,
        "meta_inclination": 0.0126,
        "meta_ra_of_asc_node": 315.9231,
        "meta_arg_of_pericenter": 309.5058,
        "meta_mean_anomaly": 122.5078,
        "meta_ephemeris_type": 0,
        "meta_classification_type": "U",
        "meta_norad_cat_id": 54026,
        "meta_element_set_no": 999,
        "meta_rev_at_epoch": 1198,
        "meta_bstar": 0,
        "meta_mean_motion_dot": 1e-06,
        "meta_mean_motion_ddot": 0,
        "tle_line1": "1 54026U 22128A   25358.18878850  .00000100  00000+0  00000+0 0  9999",
        "tle_line2": "2 54026   0.0126 315.9231 0001643 309.5058 122.5078  1.00272122 11987"
      },
      "geometry": {
        "type": "Point",
        "coordinates": [
          -113.29322462182364,
          -0.02114981777745996
        ]
      }
    },
    {
      "type": "Feature",
      "properties": {
        "norad_id": 54027,
        "name": "GALAXY 34 (G-34)",
        "group": "intelsat",
        "lat": -0.038307233224259926,
        "lon": -109.26410448853042,
        "alt_km": 35779.14775325144,
        "timestamp": "2025-12-25T19:00:39.016148+00:00",
        "meta_object_name": "GALAXY 34 (G-34)",
        "meta_object_id": "2022-128B",
        "meta_epoch": "2025-12-25T04:34:51.612096",
        "meta_mean_motion": 1.00269972,
        "meta_eccentricity": 0.0001822,
        "meta_inclination": 0.0223,
        "meta_ra_of_asc_node": 3.2758,
        "meta_arg_of_pericenter": 263.7454,
        "meta_mean_anomaly": 126.6909,
        "meta_ephemeris_type": 0,
        "meta_classification_type": "U",
        "meta_norad_cat_id": 54027,
        "meta_element_set_no": 999,
        "meta_rev_at_epoch": 1216,
        "meta_bstar": 0,
        "meta_mean_motion_dot": 0,
        "meta_mean_motion_ddot": 0,
        "tle_line1": "1 54027U 22128B   25359.19087514  .00000000  00000+0  00000+0 0  9990",
        "tle_line2": "2 54027   0.0223   3.2758 0001822 263.7454 126.6909  1.00269972 12165"
      },
      "geometry": {
        "type": "Point",
        "coordinates": [
          -109.26410448853042,
          -0.038307233224259926
        ]
      }
    },
    {
      "type": "Feature",
      "properties": {
        "norad_id": 54243,
        "name": "GALAXY 31 (G-31)",
        "group": "intelsat",
        "lat": -0.023177442569786922,
        "lon": -101.30966830780478,
        "alt_km": 35780.016377309046,
        "timestamp": "2025-12-25T19:00:39.016160+00:00",
        "meta_object_name": "GALAXY 31 (G-31)",
        "meta_object_id": "2022-153A",
        "meta_epoch": "2025-12-25T06:10:38.820000",
        "meta_mean_motion": 1.00271189,
        "meta_eccentricity": 0.00016325,
        "meta_inclination": 0.0095,
        "meta_ra_of_asc_node": 327.1033,
        "meta_arg_of_pericenter": 317.678,
        "meta_mean_anomaly": 140.8972,
        "meta_ephemeris_type": 0,
        "meta_classification_type": "U",
        "meta_norad_cat_id": 54243,
        "meta_element_set_no": 999,
        "meta_rev_at_epoch": 538,
        "meta_bstar": 0,
        "meta_mean_motion_dot": 3.4e-07,
        "meta_mean_motion_ddot": 0,
        "tle_line1": "1 54243U 22153A   25359.25739375  .00000034  00000+0  00000+0 0  9991",
        "tle_line2": "2 54243   0.0095 327.1033 0001632 317.6780 140.8972  1.00271189  5383"
      },
      "geometry": {
        "type": "Point",
        "coordinates": [
          -101.30966830780478,
          -0.023177442569786922
        ]
      }
    },
    {
      "type": "Feature",
      "properties": {
        "norad_id": 54244,
        "name": "GALAXY 32 (G-32)",
        "group": "intelsat",
        "lat": -0.0305474697818424,
        "lon": -71.31213343581612,
        "alt_km": 35779.197784909775,
        "timestamp": "2025-12-25T19:00:39.016171+00:00",
        "meta_object_name": "GALAXY 32 (G-32)",
        "meta_object_id": "2022-153B",
        "meta_epoch": "2025-12-24T09:22:58.424736",
        "meta_mean_motion": 1.00271076,
        "meta_eccentricity": 0.00019303,
        "meta_inclination": 0.0094,
        "meta_ra_of_asc_node": 17.9,
        "meta_arg_of_pericenter": 299.4695,
        "meta_mean_anomaly": 185.5393,
        "meta_ephemeris_type": 0,
        "meta_classification_type": "U",
        "meta_norad_cat_id": 54244,
        "meta_element_set_no": 999,
        "meta_rev_at_epoch": 1139,
        "meta_bstar": 0,
        "meta_mean_motion_dot": -1.53e-06,
        "meta_mean_motion_ddot": 0,
        "tle_line1": "1 54244U 22153B   25358.39095399 -.00000153  00000+0  00000+0 0  9990",
        "tle_line2": "2 54244   0.0094  17.9000 0001930 299.4695 185.5393  1.00271076 11390"
      },
      "geometry": {
        "type": "Point",
        "coordinates": [
          -71.31213343581612,
          -0.0305474697818424
        ]
      }
    }
  ]
}